{
  "type": "FeatureCollection",
  "features": [
    {
      "type": "Feature",
      "properties": {
        "id": "14147"
      },
      "geometry": {
        "type": "Polygon",
        "coordinates": [
          [
            [
              0,
              2.2105263157894735
            ],
            [
              0.3157894736842105,
              2.2105263157894735
            ],
            [
              0.3157894736842105,
              2.526315789473684
            ],
            [
              0,
              2.526315789473684
            ],
            [
              0,
              2.2105263157894735
            ]
          ]
        ]
      }
    },
    {
      "type": "Feature",
      "properties": {
        "id": "14148"
      },
      "geometry": {
        "type": "Polygon",
        "coordinates": [
          [
            [
              0.3157894736842105,
              2.2105263157894735
            ],
            [
              0.631578947368421,
              2.2105263157894735
            ],
            [
              0.631578947368421,
              2.526315789473684
            ],
            [
              0.3157894736842105,
              2.526315789473684
            ],
            [
              0.3157894736842105,
              2.2105263157894735
            ]
          ]
        ]
      }
    },
    {
      "type": "Feature",
      "properties": {
        "id": "14149"
      },
      "geometry": {
        "type": "Polygon",
        "coordinates": [
          [
            [
              0.631578947368421,
              2.2105263157894735
            ],
            [
              0.9473684210526315,
              2.2105263157894735
            ],
            [
              0.9473684210526315,
              2.526315789473684
            ],
            [
              0.631578947368421,
              2.526315789473684
            ],
            [
              0.631578947368421,
              2.2105263157894735
            ]
          ]
        ]
      }
    },
    {
      "type": "Feature",
      "properties": {
        "id": "14150"
      },
      "geometry": {
        "type": "Polygon",
        "coordinates": [
          [
            [
              0.9473684210526315,
              2.2105263157894735
            ],
            [
              1.263157894736842,
              2.2105263157894735
            ],
            [
              1.263157894736842,
              2.526315789473684
            ],
            [
              0.9473684210526315,
              2.526315789473684
            ],
            [
              0.9473684210526315,
              2.2105263157894735
            ]
          ]
        ]
      }
    },
    {
      "type": "Feature",
      "properties": {
        "id": "14151"
      },
      "geometry": {
        "type": "Polygon",
        "coordinates": [
          [
            [
              1.263157894736842,
              2.2105263157894735
            ],
            [
              1.5789473684210527,
              2.2105263157894735
            ],
            [
              1.5789473684210527,
              2.526315789473684
            ],
            [
              1.263157894736842,
              2.526315789473684
            ],
            [
              1.263157894736842,
              2.2105263157894735
            ]
          ]
        ]
      }
    },
    {
      "type": "Feature",
      "properties": {
        "id": "14152"
      },
      "geometry": {
        "type": "Polygon",
        "coordinates": [
          [
            [
              1.5789473684210527,
              2.2105263157894735
            ],
            [
              1.8947368421052633,
              2.2105263157894735
            ],
            [
              1.8947368421052633,
              2.526315789473684
            ],
            [
              1.5789473684210527,
              2.526315789473684
            ],
            [
              1.5789473684210527,
              2.2105263157894735
            ]
          ]
        ]
      }
    },
    {
      "type": "Feature",
      "properties": {
        "id": "14153"
      },
      "geometry": {
        "type": "Polygon",
        "coordinates": [
          [
            [
              1.894736842105263,
              2.2105263157894735
            ],
            [
              2.2105263157894735,
              2.2105263157894735
            ],
            [
              2.2105263157894735,
              2.526315789473684
            ],
            [
              1.894736842105263,
              2.526315789473684
            ],
            [
              1.894736842105263,
              2.2105263157894735
            ]
          ]
        ]
      }
    },
    {
      "type": "Feature",
      "properties": {
        "id": "14154"
      },
      "geometry": {
        "type": "Polygon",
        "coordinates": [
          [
            [
              2.2105263157894735,
              2.2105263157894735
            ],
            [
              2.526315789473684,
              2.2105263157894735
            ],
            [
              2.526315789473684,
              2.526315789473684
            ],
            [
              2.2105263157894735,
              2.526315789473684
            ],
            [
              2.2105263157894735,
              2.2105263157894735
            ]
          ]
        ]
      }
    },
    {
      "type": "Feature",
      "properties": {
        "id": "14155"
      },
      "geometry": {
        "type": "Polygon",
        "coordinates": [
          [
            [
              2.526315789473684,
              2.2105263157894735
            ],
            [
              2.8421052631578947,
              2.2105263157894735
            ],
            [
              2.8421052631578947,
              2.526315789473684
            ],
            [
              2.526315789473684,
              2.526315789473684
            ],
            [
              2.526315789473684,
              2.2105263157894735
            ]
          ]
        ]
      }
    },
    {
      "type": "Feature",
      "properties": {
        "id": "14156"
      },
      "geometry": {
        "type": "Polygon",
        "coordinates": [
          [
            [
              2.8421052631578947,
              2.2105263157894735
            ],
            [
              3.1578947368421053,
              2.2105263157894735
            ],
            [
              3.1578947368421053,
              2.526315789473684
            ],
            [
              2.8421052631578947,
              2.526315789473684
            ],
            [
              2.8421052631578947,
              2.2105263157894735
            ]
          ]
        ]
      }
    },
    {
      "type": "Feature",
      "properties": {
        "id": "14157"
      },
      "geometry": {
        "type": "Polygon",
        "coordinates": [
          [
            [
              3.1578947368421053,
              2.2105263157894735
            ],
            [
              3.473684210526316,
              2.2105263157894735
            ],
            [
              3.473684210526316,
              2.526315789473684
            ],
            [
              3.1578947368421053,
              2.526315789473684
            ],
            [
              3.1578947368421053,
              2.2105263157894735
            ]
          ]
        ]
      }
    },
    {
      "type": "Feature",
      "properties": {
        "id": "14158"
      },
      "geometry": {
        "type": "Polygon",
        "coordinates": [
          [
            [
              3.4736842105263155,
              2.2105263157894735
            ],
            [
              3.789473684210526,
              2.2105263157894735
            ],
            [
              3.789473684210526,
              2.526315789473684
            ],
            [
              3.4736842105263155,
              2.526315789473684
            ],
            [
              3.4736842105263155,
              2.2105263157894735
            ]
          ]
        ]
      }
    },
    {
      "type": "Feature",
      "properties": {
        "id": "14159"
      },
      "geometry": {
        "type": "Polygon",
        "coordinates": [
          [
            [
              3.789473684210526,
              2.2105263157894735
            ],
            [
              4.105263157894736,
              2.2105263157894735
            ],
            [
              4.105263157894736,
              2.526315789473684
            ],
            [
              3.789473684210526,
              2.526315789473684
            ],
            [
              3.789473684210526,
              2.2105263157894735
            ]
          ]
        ]
      }
    },
    {
      "type": "Feature",
      "properties": {
        "id": "14160"
      },
      "geometry": {
        "type": "Polygon",
        "coordinates": [
          [
            [
              4.105263157894736,
              2.2105263157894735
            ],
            [
              4.421052631578947,
              2.2105263157894735
            ],
            [
              4.421052631578947,
              2.526315789473684
            ],
            [
              4.105263157894736,
              2.526315789473684
            ],
            [
              4.105263157894736,
              2.2105263157894735
            ]
          ]
        ]
      }
    },
    {
      "type": "Feature",
      "properties": {
        "id": "14161"
      },
      "geometry": {
        "type": "Polygon",
        "coordinates": [
          [
            [
              4.421052631578947,
              2.2105263157894735
            ],
            [
              4.7368421052631575,
              2.2105263157894735
            ],
            [
              4.7368421052631575,
              2.526315789473684
            ],
            [
              4.421052631578947,
              2.526315789473684
            ],
            [
              4.421052631578947,
              2.2105263157894735
            ]
          ]
        ]
      }
    },
    {
      "type": "Feature",
      "properties": {
        "id": "14162"
      },
      "geometry": {
        "type": "Polygon",
        "coordinates": [
          [
            [
              4.7368421052631575,
              2.2105263157894735
            ],
            [
              5.052631578947368,
              2.2105263157894735
            ],
            [
              5.052631578947368,
              2.526315789473684
            ],
            [
              4.7368421052631575,
              2.526315789473684
            ],
            [
              4.7368421052631575,
              2.2105263157894735
            ]
          ]
        ]
      }
    },
    {
      "type": "Feature",
      "properties": {
        "id": "14163"
      },
      "geometry": {
        "type": "Polygon",
        "coordinates": [
          [
            [
              5.052631578947368,
              2.2105263157894735
            ],
            [
              5.368421052631579,
              2.2105263157894735
            ],
            [
              5.368421052631579,
              2.526315789473684
            ],
            [
              5.052631578947368,
              2.526315789473684
            ],
            [
              5.052631578947368,
              2.2105263157894735
            ]
          ]
        ]
      }
    },
    {
      "type": "Feature",
      "properties": {
        "id": "14164"
      },
      "geometry": {
        "type": "Polygon",
        "coordinates": [
          [
            [
              5.368421052631579,
              2.2105263157894735
            ],
            [
              5.684210526315789,
              2.2105263157894735
            ],
            [
              5.684210526315789,
              2.526315789473684
            ],
            [
              5.368421052631579,
              2.526315789473684
            ],
            [
              5.368421052631579,
              2.2105263157894735
            ]
          ]
        ]
      }
    },
    {
      "type": "Feature",
      "properties": {
        "id": "14165"
      },
      "geometry": {
        "type": "Polygon",
        "coordinates": [
          [
            [
              5.684210526315789,
              2.2105263157894735
            ],
            [
              6,
              2.2105263157894735
            ],
            [
              6,
              2.526315789473684
            ],
            [
              5.684210526315789,
              2.526315789473684
            ],
            [
              5.684210526315789,
              2.2105263157894735
            ]
          ]
        ]
      }
    },
    {
      "type": "Feature",
      "properties": {
        "id": "14166"
      },
      "geometry": {
        "type": "Polygon",
        "coordinates": [
          [
            [
              0,
              1.894736842105263
            ],
            [
              0.3157894736842105,
              1.894736842105263
            ],
            [
              0.3157894736842105,
              2.2105263157894735
            ],
            [
              0,
              2.2105263157894735
            ],
            [
              0,
              1.894736842105263
            ]
          ]
        ]
      }
    },
    {
      "type": "Feature",
      "properties": {
        "id": "14167"
      },
      "geometry": {
        "type": "Polygon",
        "coordinates": [
          [
            [
              0.3157894736842105,
              1.894736842105263
            ],
            [
              0.631578947368421,
              1.894736842105263
            ],
            [
              0.631578947368421,
              2.2105263157894735
            ],
            [
              0.3157894736842105,
              2.2105263157894735
            ],
            [
              0.3157894736842105,
              1.894736842105263
            ]
          ]
        ]
      }
    },
    {
      "type": "Feature",
      "properties": {
        "id": "14168"
      },
      "geometry": {
        "type": "Polygon",
        "coordinates": [
          [
            [
              0.631578947368421,
              1.894736842105263
            ],
            [
              0.9473684210526315,
              1.894736842105263
            ],
            [
              0.9473684210526315,
              2.2105263157894735
            ],
            [
              0.631578947368421,
              2.2105263157894735
            ],
            [
              0.631578947368421,
              1.894736842105263
            ]
          ]
        ]
      }
    },
    {
      "type": "Feature",
      "properties": {
        "id": "14169"
      },
      "geometry": {
        "type": "Polygon",
        "coordinates": [
          [
            [
              0.9473684210526315,
              1.894736842105263
            ],
            [
              1.263157894736842,
              1.894736842105263
            ],
            [
              1.263157894736842,
              2.2105263157894735
            ],
            [
              0.9473684210526315,
              2.2105263157894735
            ],
            [
              0.9473684210526315,
              1.894736842105263
            ]
          ]
        ]
      }
    },
    {
      "type": "Feature",
      "properties": {
        "id": "14170"
      },
      "geometry": {
        "type": "Polygon",
        "coordinates": [
          [
            [
              1.263157894736842,
              1.894736842105263
            ],
            [
              1.5789473684210527,
              1.894736842105263
            ],
            [
              1.5789473684210527,
              2.2105263157894735
            ],
            [
              1.263157894736842,
              2.2105263157894735
            ],
            [
              1.263157894736842,
              1.894736842105263
            ]
          ]
        ]
      }
    },
    {
      "type": "Feature",
      "properties": {
        "id": "14171"
      },
      "geometry": {
        "type": "Polygon",
        "coordinates": [
          [
            [
              1.5789473684210527,
              1.894736842105263
            ],
            [
              1.8947368421052633,
              1.894736842105263
            ],
            [
              1.8947368421052633,
              2.2105263157894735
            ],
            [
              1.5789473684210527,
              2.2105263157894735
            ],
            [
              1.5789473684210527,
              1.894736842105263
            ]
          ]
        ]
      }
    },
    {
      "type": "Feature",
      "properties": {
        "id": "14172"
      },
      "geometry": {
        "type": "Polygon",
        "coordinates": [
          [
            [
              1.894736842105263,
              1.894736842105263
            ],
            [
              2.2105263157894735,
              1.894736842105263
            ],
            [
              2.2105263157894735,
              2.2105263157894735
            ],
            [
              1.894736842105263,
              2.2105263157894735
            ],
            [
              1.894736842105263,
              1.894736842105263
            ]
          ]
        ]
      }
    },
    {
      "type": "Feature",
      "properties": {
        "id": "14173"
      },
      "geometry": {
        "type": "Polygon",
        "coordinates": [
          [
            [
              2.2105263157894735,
              1.894736842105263
            ],
            [
              2.526315789473684,
              1.894736842105263
            ],
            [
              2.526315789473684,
              2.2105263157894735
            ],
            [
              2.2105263157894735,
              2.2105263157894735
            ],
            [
              2.2105263157894735,
              1.894736842105263
            ]
          ]
        ]
      }
    },
    {
      "type": "Feature",
      "properties": {
        "id": "14174"
      },
      "geometry": {
        "type": "Polygon",
        "coordinates": [
          [
            [
              2.526315789473684,
              1.894736842105263
            ],
            [
              2.8421052631578947,
              1.894736842105263
            ],
            [
              2.8421052631578947,
              2.2105263157894735
            ],
            [
              2.526315789473684,
              2.2105263157894735
            ],
            [
              2.526315789473684,
              1.894736842105263
            ]
          ]
        ]
      }
    },
    {
      "type": "Feature",
      "properties": {
        "id": "14175"
      },
      "geometry": {
        "type": "Polygon",
        "coordinates": [
          [
            [
              2.8421052631578947,
              1.894736842105263
            ],
            [
              3.1578947368421053,
              1.894736842105263
            ],
            [
              3.1578947368421053,
              2.2105263157894735
            ],
            [
              2.8421052631578947,
              2.2105263157894735
            ],
            [
              2.8421052631578947,
              1.894736842105263
            ]
          ]
        ]
      }
    },
    {
      "type": "Feature",
      "properties": {
        "id": "14176"
      },
      "geometry": {
        "type": "Polygon",
        "coordinates": [
          [
            [
              3.1578947368421053,
              1.894736842105263
            ],
            [
              3.473684210526316,
              1.894736842105263
            ],
            [
              3.473684210526316,
              2.2105263157894735
            ],
            [
              3.1578947368421053,
              2.2105263157894735
            ],
            [
              3.1578947368421053,
              1.894736842105263
            ]
          ]
        ]
      }
    },
    {
      "type": "Feature",
      "properties": {
        "id": "14177"
      },
      "geometry": {
        "type": "Polygon",
        "coordinates": [
          [
            [
              3.4736842105263155,
              1.894736842105263
            ],
            [
              3.789473684210526,
              1.894736842105263
            ],
            [
              3.789473684210526,
              2.2105263157894735
            ],
            [
              3.4736842105263155,
              2.2105263157894735
            ],
            [
              3.4736842105263155,
              1.894736842105263
            ]
          ]
        ]
      }
    },
    {
      "type": "Feature",
      "properties": {
        "id": "14178"
      },
      "geometry": {
        "type": "Polygon",
        "coordinates": [
          [
            [
              3.789473684210526,
              1.894736842105263
            ],
            [
              4.105263157894736,
              1.894736842105263
            ],
            [
              4.105263157894736,
              2.2105263157894735
            ],
            [
              3.789473684210526,
              2.2105263157894735
            ],
            [
              3.789473684210526,
              1.894736842105263
            ]
          ]
        ]
      }
    },
    {
      "type": "Feature",
      "properties": {
        "id": "14179"
      },
      "geometry": {
        "type": "Polygon",
        "coordinates": [
          [
            [
              4.105263157894736,
              1.894736842105263
            ],
            [
              4.421052631578947,
              1.894736842105263
            ],
            [
              4.421052631578947,
              2.2105263157894735
            ],
            [
              4.105263157894736,
              2.2105263157894735
            ],
            [
              4.105263157894736,
              1.894736842105263
            ]
          ]
        ]
      }
    },
    {
      "type": "Feature",
      "properties": {
        "id": "14180"
      },
      "geometry": {
        "type": "Polygon",
        "coordinates": [
          [
            [
              4.421052631578947,
              1.894736842105263
            ],
            [
              4.7368421052631575,
              1.894736842105263
            ],
            [
              4.7368421052631575,
              2.2105263157894735
            ],
            [
              4.421052631578947,
              2.2105263157894735
            ],
            [
              4.421052631578947,
              1.894736842105263
            ]
          ]
        ]
      }
    },
    {
      "type": "Feature",
      "properties": {
        "id": "14181"
      },
      "geometry": {
        "type": "Polygon",
        "coordinates": [
          [
            [
              4.7368421052631575,
              1.894736842105263
            ],
            [
              5.052631578947368,
              1.894736842105263
            ],
            [
              5.052631578947368,
              2.2105263157894735
            ],
            [
              4.7368421052631575,
              2.2105263157894735
            ],
            [
              4.7368421052631575,
              1.894736842105263
            ]
          ]
        ]
      }
    },
    {
      "type": "Feature",
      "properties": {
        "id": "14182"
      },
      "geometry": {
        "type": "Polygon",
        "coordinates": [
          [
            [
              5.052631578947368,
              1.894736842105263
            ],
            [
              5.368421052631579,
              1.894736842105263
            ],
            [
              5.368421052631579,
              2.2105263157894735
            ],
            [
              5.052631578947368,
              2.2105263157894735
            ],
            [
              5.052631578947368,
              1.894736842105263
            ]
          ]
        ]
      }
    },
    {
      "type": "Feature",
      "properties": {
        "id": "14183"
      },
      "geometry": {
        "type": "Polygon",
        "coordinates": [
          [
            [
              5.368421052631579,
              1.894736842105263
            ],
            [
              5.684210526315789,
              1.894736842105263
            ],
            [
              5.684210526315789,
              2.2105263157894735
            ],
            [
              5.368421052631579,
              2.2105263157894735
            ],
            [
              5.368421052631579,
              1.894736842105263
            ]
          ]
        ]
      }
    },
    {
      "type": "Feature",
      "properties": {
        "id": "14184"
      },
      "geometry": {
        "type": "Polygon",
        "coordinates": [
          [
            [
              5.684210526315789,
              1.894736842105263
            ],
            [
              6,
              1.894736842105263
            ],
            [
              6,
              2.2105263157894735
            ],
            [
              5.684210526315789,
              2.2105263157894735
            ],
            [
              5.684210526315789,
              1.894736842105263
            ]
          ]
        ]
      }
    },
    {
      "type": "Feature",
      "properties": {
        "id": "14185"
      },
      "geometry": {
        "type": "Polygon",
        "coordinates": [
          [
            [
              0,
              1.5789473684210527
            ],
            [
              0.3157894736842105,
              1.5789473684210527
            ],
            [
              0.3157894736842105,
              1.8947368421052633
            ],
            [
              0,
              1.8947368421052633
            ],
            [
              0,
              1.5789473684210527
            ]
          ]
        ]
      }
    },
    {
      "type": "Feature",
      "properties": {
        "id": "14186"
      },
      "geometry": {
        "type": "Polygon",
        "coordinates": [
          [
            [
              0.3157894736842105,
              1.5789473684210527
            ],
            [
              0.631578947368421,
              1.5789473684210527
            ],
            [
              0.631578947368421,
              1.8947368421052633
            ],
            [
              0.3157894736842105,
              1.8947368421052633
            ],
            [
              0.3157894736842105,
              1.5789473684210527
            ]
          ]
        ]
      }
    },
    {
      "type": "Feature",
      "properties": {
        "id": "14187"
      },
      "geometry": {
        "type": "Polygon",
        "coordinates": [
          [
            [
              0.631578947368421,
              1.5789473684210527
            ],
            [
              0.9473684210526315,
              1.5789473684210527
            ],
            [
              0.9473684210526315,
              1.8947368421052633
            ],
            [
              0.631578947368421,
              1.8947368421052633
            ],
            [
              0.631578947368421,
              1.5789473684210527
            ]
          ]
        ]
      }
    },
    {
      "type": "Feature",
      "properties": {
        "id": "14188"
      },
      "geometry": {
        "type": "Polygon",
        "coordinates": [
          [
            [
              0.9473684210526315,
              1.5789473684210527
            ],
            [
              1.263157894736842,
              1.5789473684210527
            ],
            [
              1.263157894736842,
              1.8947368421052633
            ],
            [
              0.9473684210526315,
              1.8947368421052633
            ],
            [
              0.9473684210526315,
              1.5789473684210527
            ]
          ]
        ]
      }
    },
    {
      "type": "Feature",
      "properties": {
        "id": "14189"
      },
      "geometry": {
        "type": "Polygon",
        "coordinates": [
          [
            [
              1.263157894736842,
              1.5789473684210527
            ],
            [
              1.5789473684210527,
              1.5789473684210527
            ],
            [
              1.5789473684210527,
              1.8947368421052633
            ],
            [
              1.263157894736842,
              1.8947368421052633
            ],
            [
              1.263157894736842,
              1.5789473684210527
            ]
          ]
        ]
      }
    },
    {
      "type": "Feature",
      "properties": {
        "id": "14190"
      },
      "geometry": {
        "type": "Polygon",
        "coordinates": [
          [
            [
              1.5789473684210527,
              1.5789473684210527
            ],
            [
              1.8947368421052633,
              1.5789473684210527
            ],
            [
              1.8947368421052633,
              1.8947368421052633
            ],
            [
              1.5789473684210527,
              1.8947368421052633
            ],
            [
              1.5789473684210527,
              1.5789473684210527
            ]
          ]
        ]
      }
    },
    {
      "type": "Feature",
      "properties": {
        "id": "14191"
      },
      "geometry": {
        "type": "Polygon",
        "coordinates": [
          [
            [
              1.894736842105263,
              1.5789473684210527
            ],
            [
              2.2105263157894735,
              1.5789473684210527
            ],
            [
              2.2105263157894735,
              1.8947368421052633
            ],
            [
              1.894736842105263,
              1.8947368421052633
            ],
            [
              1.894736842105263,
              1.5789473684210527
            ]
          ]
        ]
      }
    },
    {
      "type": "Feature",
      "properties": {
        "id": "14192"
      },
      "geometry": {
        "type": "Polygon",
        "coordinates": [
          [
            [
              2.2105263157894735,
              1.5789473684210527
            ],
            [
              2.526315789473684,
              1.5789473684210527
            ],
            [
              2.526315789473684,
              1.8947368421052633
            ],
            [
              2.2105263157894735,
              1.8947368421052633
            ],
            [
              2.2105263157894735,
              1.5789473684210527
            ]
          ]
        ]
      }
    },
    {
      "type": "Feature",
      "properties": {
        "id": "14193"
      },
      "geometry": {
        "type": "Polygon",
        "coordinates": [
          [
            [
              2.526315789473684,
              1.5789473684210527
            ],
            [
              2.8421052631578947,
              1.5789473684210527
            ],
            [
              2.8421052631578947,
              1.8947368421052633
            ],
            [
              2.526315789473684,
              1.8947368421052633
            ],
            [
              2.526315789473684,
              1.5789473684210527
            ]
          ]
        ]
      }
    },
    {
      "type": "Feature",
      "properties": {
        "id": "14194"
      },
      "geometry": {
        "type": "Polygon",
        "coordinates": [
          [
            [
              2.8421052631578947,
              1.5789473684210527
            ],
            [
              3.1578947368421053,
              1.5789473684210527
            ],
            [
              3.1578947368421053,
              1.8947368421052633
            ],
            [
              2.8421052631578947,
              1.8947368421052633
            ],
            [
              2.8421052631578947,
              1.5789473684210527
            ]
          ]
        ]
      }
    },
    {
      "type": "Feature",
      "properties": {
        "id": "14195"
      },
      "geometry": {
        "type": "Polygon",
        "coordinates": [
          [
            [
              3.1578947368421053,
              1.5789473684210527
            ],
            [
              3.473684210526316,
              1.5789473684210527
            ],
            [
              3.473684210526316,
              1.8947368421052633
            ],
            [
              3.1578947368421053,
              1.8947368421052633
            ],
            [
              3.1578947368421053,
              1.5789473684210527
            ]
          ]
        ]
      }
    },
    {
      "type": "Feature",
      "properties": {
        "id": "14196"
      },
      "geometry": {
        "type": "Polygon",
        "coordinates": [
          [
            [
              3.4736842105263155,
              1.5789473684210527
            ],
            [
              3.789473684210526,
              1.5789473684210527
            ],
            [
              3.789473684210526,
              1.8947368421052633
            ],
            [
              3.4736842105263155,
              1.8947368421052633
            ],
            [
              3.4736842105263155,
              1.5789473684210527
            ]
          ]
        ]
      }
    },
    {
      "type": "Feature",
      "properties": {
        "id": "14197"
      },
      "geometry": {
        "type": "Polygon",
        "coordinates": [
          [
            [
              3.789473684210526,
              1.5789473684210527
            ],
            [
              4.105263157894736,
              1.5789473684210527
            ],
            [
              4.105263157894736,
              1.8947368421052633
            ],
            [
              3.789473684210526,
              1.8947368421052633
            ],
            [
              3.789473684210526,
              1.5789473684210527
            ]
          ]
        ]
      }
    },
    {
      "type": "Feature",
      "properties": {
        "id": "14198"
      },
      "geometry": {
        "type": "Polygon",
        "coordinates": [
          [
            [
              4.105263157894736,
              1.5789473684210527
            ],
            [
              4.421052631578947,
              1.5789473684210527
            ],
            [
              4.421052631578947,
              1.8947368421052633
            ],
            [
              4.105263157894736,
              1.8947368421052633
            ],
            [
              4.105263157894736,
              1.5789473684210527
            ]
          ]
        ]
      }
    },
    {
      "type": "Feature",
      "properties": {
        "id": "14199"
      },
      "geometry": {
        "type": "Polygon",
        "coordinates": [
          [
            [
              4.421052631578947,
              1.5789473684210527
            ],
            [
              4.7368421052631575,
              1.5789473684210527
            ],
            [
              4.7368421052631575,
              1.8947368421052633
            ],
            [
              4.421052631578947,
              1.8947368421052633
            ],
            [
              4.421052631578947,
              1.5789473684210527
            ]
          ]
        ]
      }
    },
    {
      "type": "Feature",
      "properties": {
        "id": "14200"
      },
      "geometry": {
        "type": "Polygon",
        "coordinates": [
          [
            [
              4.7368421052631575,
              1.5789473684210527
            ],
            [
              5.052631578947368,
              1.5789473684210527
            ],
            [
              5.052631578947368,
              1.8947368421052633
            ],
            [
              4.7368421052631575,
              1.8947368421052633
            ],
            [
              4.7368421052631575,
              1.5789473684210527
            ]
          ]
        ]
      }
    },
    {
      "type": "Feature",
      "properties": {
        "id": "14201"
      },
      "geometry": {
        "type": "Polygon",
        "coordinates": [
          [
            [
              5.052631578947368,
              1.5789473684210527
            ],
            [
              5.368421052631579,
              1.5789473684210527
            ],
            [
              5.368421052631579,
              1.8947368421052633
            ],
            [
              5.052631578947368,
              1.8947368421052633
            ],
            [
              5.052631578947368,
              1.5789473684210527
            ]
          ]
        ]
      }
    },
    {
      "type": "Feature",
      "properties": {
        "id": "14202"
      },
      "geometry": {
        "type": "Polygon",
        "coordinates": [
          [
            [
              5.368421052631579,
              1.5789473684210527
            ],
            [
              5.684210526315789,
              1.5789473684210527
            ],
            [
              5.684210526315789,
              1.8947368421052633
            ],
            [
              5.368421052631579,
              1.8947368421052633
            ],
            [
              5.368421052631579,
              1.5789473684210527
            ]
          ]
        ]
      }
    },
    {
      "type": "Feature",
      "properties": {
        "id": "14203"
      },
      "geometry": {
        "type": "Polygon",
        "coordinates": [
          [
            [
              5.684210526315789,
              1.5789473684210527
            ],
            [
              6,
              1.5789473684210527
            ],
            [
              6,
              1.8947368421052633
            ],
            [
              5.684210526315789,
              1.8947368421052633
            ],
            [
              5.684210526315789,
              1.5789473684210527
            ]
          ]
        ]
      }
    },
    {
      "type": "Feature",
      "properties": {
        "id": "14204"
      },
      "geometry": {
        "type": "Polygon",
        "coordinates": [
          [
            [
              0,
              1.263157894736842
            ],
            [
              0.3157894736842105,
              1.263157894736842
            ],
            [
              0.3157894736842105,
              1.5789473684210527
            ],
            [
              0,
              1.5789473684210527
            ],
            [
              0,
              1.263157894736842
            ]
          ]
        ]
      }
    },
    {
      "type": "Feature",
      "properties": {
        "id": "14205"
      },
      "geometry": {
        "type": "Polygon",
        "coordinates": [
          [
            [
              0.3157894736842105,
              1.263157894736842
            ],
            [
              0.631578947368421,
              1.263157894736842
            ],
            [
              0.631578947368421,
              1.5789473684210527
            ],
            [
              0.3157894736842105,
              1.5789473684210527
            ],
            [
              0.3157894736842105,
              1.263157894736842
            ]
          ]
        ]
      }
    },
    {
      "type": "Feature",
      "properties": {
        "id": "14206"
      },
      "geometry": {
        "type": "Polygon",
        "coordinates": [
          [
            [
              0.631578947368421,
              1.263157894736842
            ],
            [
              0.9473684210526315,
              1.263157894736842
            ],
            [
              0.9473684210526315,
              1.5789473684210527
            ],
            [
              0.631578947368421,
              1.5789473684210527
            ],
            [
              0.631578947368421,
              1.263157894736842
            ]
          ]
        ]
      }
    },
    {
      "type": "Feature",
      "properties": {
        "id": "14207"
      },
      "geometry": {
        "type": "Polygon",
        "coordinates": [
          [
            [
              0.9473684210526315,
              1.263157894736842
            ],
            [
              1.263157894736842,
              1.263157894736842
            ],
            [
              1.263157894736842,
              1.5789473684210527
            ],
            [
              0.9473684210526315,
              1.5789473684210527
            ],
            [
              0.9473684210526315,
              1.263157894736842
            ]
          ]
        ]
      }
    },
    {
      "type": "Feature",
      "properties": {
        "id": "14208"
      },
      "geometry": {
        "type": "Polygon",
        "coordinates": [
          [
            [
              1.263157894736842,
              1.263157894736842
            ],
            [
              1.5789473684210527,
              1.263157894736842
            ],
            [
              1.5789473684210527,
              1.5789473684210527
            ],
            [
              1.263157894736842,
              1.5789473684210527
            ],
            [
              1.263157894736842,
              1.263157894736842
            ]
          ]
        ]
      }
    },
    {
      "type": "Feature",
      "properties": {
        "id": "14209"
      },
      "geometry": {
        "type": "Polygon",
        "coordinates": [
          [
            [
              1.5789473684210527,
              1.263157894736842
            ],
            [
              1.8947368421052633,
              1.263157894736842
            ],
            [
              1.8947368421052633,
              1.5789473684210527
            ],
            [
              1.5789473684210527,
              1.5789473684210527
            ],
            [
              1.5789473684210527,
              1.263157894736842
            ]
          ]
        ]
      }
    },
    {
      "type": "Feature",
      "properties": {
        "id": "14210"
      },
      "geometry": {
        "type": "Polygon",
        "coordinates": [
          [
            [
              1.894736842105263,
              1.263157894736842
            ],
            [
              2.2105263157894735,
              1.263157894736842
            ],
            [
              2.2105263157894735,
              1.5789473684210527
            ],
            [
              1.894736842105263,
              1.5789473684210527
            ],
            [
              1.894736842105263,
              1.263157894736842
            ]
          ]
        ]
      }
    },
    {
      "type": "Feature",
      "properties": {
        "id": "14211"
      },
      "geometry": {
        "type": "Polygon",
        "coordinates": [
          [
            [
              2.2105263157894735,
              1.263157894736842
            ],
            [
              2.526315789473684,
              1.263157894736842
            ],
            [
              2.526315789473684,
              1.5789473684210527
            ],
            [
              2.2105263157894735,
              1.5789473684210527
            ],
            [
              2.2105263157894735,
              1.263157894736842
            ]
          ]
        ]
      }
    },
    {
      "type": "Feature",
      "properties": {
        "id": "14212"
      },
      "geometry": {
        "type": "Polygon",
        "coordinates": [
          [
            [
              2.526315789473684,
              1.263157894736842
            ],
            [
              2.8421052631578947,
              1.263157894736842
            ],
            [
              2.8421052631578947,
              1.5789473684210527
            ],
            [
              2.526315789473684,
              1.5789473684210527
            ],
            [
              2.526315789473684,
              1.263157894736842
            ]
          ]
        ]
      }
    },
    {
      "type": "Feature",
      "properties": {
        "id": "14213"
      },
      "geometry": {
        "type": "Polygon",
        "coordinates": [
          [
            [
              2.8421052631578947,
              1.263157894736842
            ],
            [
              3.1578947368421053,
              1.263157894736842
            ],
            [
              3.1578947368421053,
              1.5789473684210527
            ],
            [
              2.8421052631578947,
              1.5789473684210527
            ],
            [
              2.8421052631578947,
              1.263157894736842
            ]
          ]
        ]
      }
    },
    {
      "type": "Feature",
      "properties": {
        "id": "14214"
      },
      "geometry": {
        "type": "Polygon",
        "coordinates": [
          [
            [
              3.1578947368421053,
              1.263157894736842
            ],
            [
              3.473684210526316,
              1.263157894736842
            ],
            [
              3.473684210526316,
              1.5789473684210527
            ],
            [
              3.1578947368421053,
              1.5789473684210527
            ],
            [
              3.1578947368421053,
              1.263157894736842
            ]
          ]
        ]
      }
    },
    {
      "type": "Feature",
      "properties": {
        "id": "14215"
      },
      "geometry": {
        "type": "Polygon",
        "coordinates": [
          [
            [
              3.4736842105263155,
              1.263157894736842
            ],
            [
              3.789473684210526,
              1.263157894736842
            ],
            [
              3.789473684210526,
              1.5789473684210527
            ],
            [
              3.4736842105263155,
              1.5789473684210527
            ],
            [
              3.4736842105263155,
              1.263157894736842
            ]
          ]
        ]
      }
    },
    {
      "type": "Feature",
      "properties": {
        "id": "14216"
      },
      "geometry": {
        "type": "Polygon",
        "coordinates": [
          [
            [
              3.789473684210526,
              1.263157894736842
            ],
            [
              4.105263157894736,
              1.263157894736842
            ],
            [
              4.105263157894736,
              1.5789473684210527
            ],
            [
              3.789473684210526,
              1.5789473684210527
            ],
            [
              3.789473684210526,
              1.263157894736842
            ]
          ]
        ]
      }
    },
    {
      "type": "Feature",
      "properties": {
        "id": "14217"
      },
      "geometry": {
        "type": "Polygon",
        "coordinates": [
          [
            [
              4.105263157894736,
              1.263157894736842
            ],
            [
              4.421052631578947,
              1.263157894736842
            ],
            [
              4.421052631578947,
              1.5789473684210527
            ],
            [
              4.105263157894736,
              1.5789473684210527
            ],
            [
              4.105263157894736,
              1.263157894736842
            ]
          ]
        ]
      }
    },
    {
      "type": "Feature",
      "properties": {
        "id": "14218"
      },
      "geometry": {
        "type": "Polygon",
        "coordinates": [
          [
            [
              4.421052631578947,
              1.263157894736842
            ],
            [
              4.7368421052631575,
              1.263157894736842
            ],
            [
              4.7368421052631575,
              1.5789473684210527
            ],
            [
              4.421052631578947,
              1.5789473684210527
            ],
            [
              4.421052631578947,
              1.263157894736842
            ]
          ]
        ]
      }
    },
    {
      "type": "Feature",
      "properties": {
        "id": "14219"
      },
      "geometry": {
        "type": "Polygon",
        "coordinates": [
          [
            [
              4.7368421052631575,
              1.263157894736842
            ],
            [
              5.052631578947368,
              1.263157894736842
            ],
            [
              5.052631578947368,
              1.5789473684210527
            ],
            [
              4.7368421052631575,
              1.5789473684210527
            ],
            [
              4.7368421052631575,
              1.263157894736842
            ]
          ]
        ]
      }
    },
    {
      "type": "Feature",
      "properties": {
        "id": "14220"
      },
      "geometry": {
        "type": "Polygon",
        "coordinates": [
          [
            [
              5.052631578947368,
              1.263157894736842
            ],
            [
              5.368421052631579,
              1.263157894736842
            ],
            [
              5.368421052631579,
              1.5789473684210527
            ],
            [
              5.052631578947368,
              1.5789473684210527
            ],
            [
              5.052631578947368,
              1.263157894736842
            ]
          ]
        ]
      }
    },
    {
      "type": "Feature",
      "properties": {
        "id": "14221"
      },
      "geometry": {
        "type": "Polygon",
        "coordinates": [
          [
            [
              5.368421052631579,
              1.263157894736842
            ],
            [
              5.684210526315789,
              1.263157894736842
            ],
            [
              5.684210526315789,
              1.5789473684210527
            ],
            [
              5.368421052631579,
              1.5789473684210527
            ],
            [
              5.368421052631579,
              1.263157894736842
            ]
          ]
        ]
      }
    },
    {
      "type": "Feature",
      "properties": {
        "id": "14222"
      },
      "geometry": {
        "type": "Polygon",
        "coordinates": [
          [
            [
              5.684210526315789,
              1.263157894736842
            ],
            [
              6,
              1.263157894736842
            ],
            [
              6,
              1.5789473684210527
            ],
            [
              5.684210526315789,
              1.5789473684210527
            ],
            [
              5.684210526315789,
              1.263157894736842
            ]
          ]
        ]
      }
    },
    {
      "type": "Feature",
      "properties": {
        "id": "14223"
      },
      "geometry": {
        "type": "Polygon",
        "coordinates": [
          [
            [
              0,
              0.9473684210526315
            ],
            [
              0.3157894736842105,
              0.9473684210526315
            ],
            [
              0.3157894736842105,
              1.263157894736842
            ],
            [
              0,
              1.263157894736842
            ],
            [
              0,
              0.9473684210526315
            ]
          ]
        ]
      }
    },
    {
      "type": "Feature",
      "properties": {
        "id": "14224"
      },
      "geometry": {
        "type": "Polygon",
        "coordinates": [
          [
            [
              0.3157894736842105,
              0.9473684210526315
            ],
            [
              0.631578947368421,
              0.9473684210526315
            ],
            [
              0.631578947368421,
              1.263157894736842
            ],
            [
              0.3157894736842105,
              1.263157894736842
            ],
            [
              0.3157894736842105,
              0.9473684210526315
            ]
          ]
        ]
      }
    },
    {
      "type": "Feature",
      "properties": {
        "id": "14225"
      },
      "geometry": {
        "type": "Polygon",
        "coordinates": [
          [
            [
              0.631578947368421,
              0.9473684210526315
            ],
            [
              0.9473684210526315,
              0.9473684210526315
            ],
            [
              0.9473684210526315,
              1.263157894736842
            ],
            [
              0.631578947368421,
              1.263157894736842
            ],
            [
              0.631578947368421,
              0.9473684210526315
            ]
          ]
        ]
      }
    },
    {
      "type": "Feature",
      "properties": {
        "id": "14226"
      },
      "geometry": {
        "type": "Polygon",
        "coordinates": [
          [
            [
              0.9473684210526315,
              0.9473684210526315
            ],
            [
              1.263157894736842,
              0.9473684210526315
            ],
            [
              1.263157894736842,
              1.263157894736842
            ],
            [
              0.9473684210526315,
              1.263157894736842
            ],
            [
              0.9473684210526315,
              0.9473684210526315
            ]
          ]
        ]
      }
    },
    {
      "type": "Feature",
      "properties": {
        "id": "14227"
      },
      "geometry": {
        "type": "Polygon",
        "coordinates": [
          [
            [
              1.263157894736842,
              0.9473684210526315
            ],
            [
              1.5789473684210527,
              0.9473684210526315
            ],
            [
              1.5789473684210527,
              1.263157894736842
            ],
            [
              1.263157894736842,
              1.263157894736842
            ],
            [
              1.263157894736842,
              0.9473684210526315
            ]
          ]
        ]
      }
    },
    {
      "type": "Feature",
      "properties": {
        "id": "14228"
      },
      "geometry": {
        "type": "Polygon",
        "coordinates": [
          [
            [
              1.5789473684210527,
              0.9473684210526315
            ],
            [
              1.8947368421052633,
              0.9473684210526315
            ],
            [
              1.8947368421052633,
              1.263157894736842
            ],
            [
              1.5789473684210527,
              1.263157894736842
            ],
            [
              1.5789473684210527,
              0.9473684210526315
            ]
          ]
        ]
      }
    },
    {
      "type": "Feature",
      "properties": {
        "id": "14229"
      },
      "geometry": {
        "type": "Polygon",
        "coordinates": [
          [
            [
              1.894736842105263,
              0.9473684210526315
            ],
            [
              2.2105263157894735,
              0.9473684210526315
            ],
            [
              2.2105263157894735,
              1.263157894736842
            ],
            [
              1.894736842105263,
              1.263157894736842
            ],
            [
              1.894736842105263,
              0.9473684210526315
            ]
          ]
        ]
      }
    },
    {
      "type": "Feature",
      "properties": {
        "id": "14230"
      },
      "geometry": {
        "type": "Polygon",
        "coordinates": [
          [
            [
              2.2105263157894735,
              0.9473684210526315
            ],
            [
              2.526315789473684,
              0.9473684210526315
            ],
            [
              2.526315789473684,
              1.263157894736842
            ],
            [
              2.2105263157894735,
              1.263157894736842
            ],
            [
              2.2105263157894735,
              0.9473684210526315
            ]
          ]
        ]
      }
    },
    {
      "type": "Feature",
      "properties": {
        "id": "14231"
      },
      "geometry": {
        "type": "Polygon",
        "coordinates": [
          [
            [
              2.526315789473684,
              0.9473684210526315
            ],
            [
              2.8421052631578947,
              0.9473684210526315
            ],
            [
              2.8421052631578947,
              1.263157894736842
            ],
            [
              2.526315789473684,
              1.263157894736842
            ],
            [
              2.526315789473684,
              0.9473684210526315
            ]
          ]
        ]
      }
    },
    {
      "type": "Feature",
      "properties": {
        "id": "14232"
      },
      "geometry": {
        "type": "Polygon",
        "coordinates": [
          [
            [
              2.8421052631578947,
              0.9473684210526315
            ],
            [
              3.1578947368421053,
              0.9473684210526315
            ],
            [
              3.1578947368421053,
              1.263157894736842
            ],
            [
              2.8421052631578947,
              1.263157894736842
            ],
            [
              2.8421052631578947,
              0.9473684210526315
            ]
          ]
        ]
      }
    },
    {
      "type": "Feature",
      "properties": {
        "id": "14233"
      },
      "geometry": {
        "type": "Polygon",
        "coordinates": [
          [
            [
              3.1578947368421053,
              0.9473684210526315
            ],
            [
              3.473684210526316,
              0.9473684210526315
            ],
            [
              3.473684210526316,
              1.263157894736842
            ],
            [
              3.1578947368421053,
              1.263157894736842
            ],
            [
              3.1578947368421053,
              0.9473684210526315
            ]
          ]
        ]
      }
    },
    {
      "type": "Feature",
      "properties": {
        "id": "14234"
      },
      "geometry": {
        "type": "Polygon",
        "coordinates": [
          [
            [
              3.4736842105263155,
              0.9473684210526315
            ],
            [
              3.789473684210526,
              0.9473684210526315
            ],
            [
              3.789473684210526,
              1.263157894736842
            ],
            [
              3.4736842105263155,
              1.263157894736842
            ],
            [
              3.4736842105263155,
              0.9473684210526315
            ]
          ]
        ]
      }
    },
    {
      "type": "Feature",
      "properties": {
        "id": "14235"
      },
      "geometry": {
        "type": "Polygon",
        "coordinates": [
          [
            [
              3.789473684210526,
              0.9473684210526315
            ],
            [
              4.105263157894736,
              0.9473684210526315
            ],
            [
              4.105263157894736,
              1.263157894736842
            ],
            [
              3.789473684210526,
              1.263157894736842
            ],
            [
              3.789473684210526,
              0.9473684210526315
            ]
          ]
        ]
      }
    },
    {
      "type": "Feature",
      "properties": {
        "id": "14236"
      },
      "geometry": {
        "type": "Polygon",
        "coordinates": [
          [
            [
              4.105263157894736,
              0.9473684210526315
            ],
            [
              4.421052631578947,
              0.9473684210526315
            ],
            [
              4.421052631578947,
              1.263157894736842
            ],
            [
              4.105263157894736,
              1.263157894736842
            ],
            [
              4.105263157894736,
              0.9473684210526315
            ]
          ]
        ]
      }
    },
    {
      "type": "Feature",
      "properties": {
        "id": "14237"
      },
      "geometry": {
        "type": "Polygon",
        "coordinates": [
          [
            [
              4.421052631578947,
              0.9473684210526315
            ],
            [
              4.7368421052631575,
              0.9473684210526315
            ],
            [
              4.7368421052631575,
              1.263157894736842
            ],
            [
              4.421052631578947,
              1.263157894736842
            ],
            [
              4.421052631578947,
              0.9473684210526315
            ]
          ]
        ]
      }
    },
    {
      "type": "Feature",
      "properties": {
        "id": "14238"
      },
      "geometry": {
        "type": "Polygon",
        "coordinates": [
          [
            [
              4.7368421052631575,
              0.9473684210526315
            ],
            [
              5.052631578947368,
              0.9473684210526315
            ],
            [
              5.052631578947368,
              1.263157894736842
            ],
            [
              4.7368421052631575,
              1.263157894736842
            ],
            [
              4.7368421052631575,
              0.9473684210526315
            ]
          ]
        ]
      }
    },
    {
      "type": "Feature",
      "properties": {
        "id": "14239"
      },
      "geometry": {
        "type": "Polygon",
        "coordinates": [
          [
            [
              5.052631578947368,
              0.9473684210526315
            ],
            [
              5.368421052631579,
              0.9473684210526315
            ],
            [
              5.368421052631579,
              1.263157894736842
            ],
            [
              5.052631578947368,
              1.263157894736842
            ],
            [
              5.052631578947368,
              0.9473684210526315
            ]
          ]
        ]
      }
    },
    {
      "type": "Feature",
      "properties": {
        "id": "14240"
      },
      "geometry": {
        "type": "Polygon",
        "coordinates": [
          [
            [
              5.368421052631579,
              0.9473684210526315
            ],
            [
              5.684210526315789,
              0.9473684210526315
            ],
            [
              5.684210526315789,
              1.263157894736842
            ],
            [
              5.368421052631579,
              1.263157894736842
            ],
            [
              5.368421052631579,
              0.9473684210526315
            ]
          ]
        ]
      }
    },
    {
      "type": "Feature",
      "properties": {
        "id": "14241"
      },
      "geometry": {
        "type": "Polygon",
        "coordinates": [
          [
            [
              5.684210526315789,
              0.9473684210526315
            ],
            [
              6,
              0.9473684210526315
            ],
            [
              6,
              1.263157894736842
            ],
            [
              5.684210526315789,
              1.263157894736842
            ],
            [
              5.684210526315789,
              0.9473684210526315
            ]
          ]
        ]
      }
    },
    {
      "type": "Feature",
      "properties": {
        "id": "14242"
      },
      "geometry": {
        "type": "Polygon",
        "coordinates": [
          [
            [
              0,
              0.631578947368421
            ],
            [
              0.3157894736842105,
              0.631578947368421
            ],
            [
              0.3157894736842105,
              0.9473684210526315
            ],
            [
              0,
              0.9473684210526315
            ],
            [
              0,
              0.631578947368421
            ]
          ]
        ]
      }
    },
    {
      "type": "Feature",
      "properties": {
        "id": "14243"
      },
      "geometry": {
        "type": "Polygon",
        "coordinates": [
          [
            [
              0.3157894736842105,
              0.631578947368421
            ],
            [
              0.631578947368421,
              0.631578947368421
            ],
            [
              0.631578947368421,
              0.9473684210526315
            ],
            [
              0.3157894736842105,
              0.9473684210526315
            ],
            [
              0.3157894736842105,
              0.631578947368421
            ]
          ]
        ]
      }
    },
    {
      "type": "Feature",
      "properties": {
        "id": "14244"
      },
      "geometry": {
        "type": "Polygon",
        "coordinates": [
          [
            [
              0.631578947368421,
              0.631578947368421
            ],
            [
              0.9473684210526315,
              0.631578947368421
            ],
            [
              0.9473684210526315,
              0.9473684210526315
            ],
            [
              0.631578947368421,
              0.9473684210526315
            ],
            [
              0.631578947368421,
              0.631578947368421
            ]
          ]
        ]
      }
    },
    {
      "type": "Feature",
      "properties": {
        "id": "14245"
      },
      "geometry": {
        "type": "Polygon",
        "coordinates": [
          [
            [
              0.9473684210526315,
              0.631578947368421
            ],
            [
              1.263157894736842,
              0.631578947368421
            ],
            [
              1.263157894736842,
              0.9473684210526315
            ],
            [
              0.9473684210526315,
              0.9473684210526315
            ],
            [
              0.9473684210526315,
              0.631578947368421
            ]
          ]
        ]
      }
    },
    {
      "type": "Feature",
      "properties": {
        "id": "14246"
      },
      "geometry": {
        "type": "Polygon",
        "coordinates": [
          [
            [
              1.263157894736842,
              0.631578947368421
            ],
            [
              1.5789473684210527,
              0.631578947368421
            ],
            [
              1.5789473684210527,
              0.9473684210526315
            ],
            [
              1.263157894736842,
              0.9473684210526315
            ],
            [
              1.263157894736842,
              0.631578947368421
            ]
          ]
        ]
      }
    },
    {
      "type": "Feature",
      "properties": {
        "id": "14247"
      },
      "geometry": {
        "type": "Polygon",
        "coordinates": [
          [
            [
              1.5789473684210527,
              0.631578947368421
            ],
            [
              1.8947368421052633,
              0.631578947368421
            ],
            [
              1.8947368421052633,
              0.9473684210526315
            ],
            [
              1.5789473684210527,
              0.9473684210526315
            ],
            [
              1.5789473684210527,
              0.631578947368421
            ]
          ]
        ]
      }
    },
    {
      "type": "Feature",
      "properties": {
        "id": "14248"
      },
      "geometry": {
        "type": "Polygon",
        "coordinates": [
          [
            [
              1.894736842105263,
              0.631578947368421
            ],
            [
              2.2105263157894735,
              0.631578947368421
            ],
            [
              2.2105263157894735,
              0.9473684210526315
            ],
            [
              1.894736842105263,
              0.9473684210526315
            ],
            [
              1.894736842105263,
              0.631578947368421
            ]
          ]
        ]
      }
    },
    {
      "type": "Feature",
      "properties": {
        "id": "14249"
      },
      "geometry": {
        "type": "Polygon",
        "coordinates": [
          [
            [
              2.2105263157894735,
              0.631578947368421
            ],
            [
              2.526315789473684,
              0.631578947368421
            ],
            [
              2.526315789473684,
              0.9473684210526315
            ],
            [
              2.2105263157894735,
              0.9473684210526315
            ],
            [
              2.2105263157894735,
              0.631578947368421
            ]
          ]
        ]
      }
    },
    {
      "type": "Feature",
      "properties": {
        "id": "14250"
      },
      "geometry": {
        "type": "Polygon",
        "coordinates": [
          [
            [
              2.526315789473684,
              0.631578947368421
            ],
            [
              2.8421052631578947,
              0.631578947368421
            ],
            [
              2.8421052631578947,
              0.9473684210526315
            ],
            [
              2.526315789473684,
              0.9473684210526315
            ],
            [
              2.526315789473684,
              0.631578947368421
            ]
          ]
        ]
      }
    },
    {
      "type": "Feature",
      "properties": {
        "id": "14251"
      },
      "geometry": {
        "type": "Polygon",
        "coordinates": [
          [
            [
              2.8421052631578947,
              0.631578947368421
            ],
            [
              3.1578947368421053,
              0.631578947368421
            ],
            [
              3.1578947368421053,
              0.9473684210526315
            ],
            [
              2.8421052631578947,
              0.9473684210526315
            ],
            [
              2.8421052631578947,
              0.631578947368421
            ]
          ]
        ]
      }
    },
    {
      "type": "Feature",
      "properties": {
        "id": "14252"
      },
      "geometry": {
        "type": "Polygon",
        "coordinates": [
          [
            [
              3.1578947368421053,
              0.631578947368421
            ],
            [
              3.473684210526316,
              0.631578947368421
            ],
            [
              3.473684210526316,
              0.9473684210526315
            ],
            [
              3.1578947368421053,
              0.9473684210526315
            ],
            [
              3.1578947368421053,
              0.631578947368421
            ]
          ]
        ]
      }
    },
    {
      "type": "Feature",
      "properties": {
        "id": "14253"
      },
      "geometry": {
        "type": "Polygon",
        "coordinates": [
          [
            [
              3.4736842105263155,
              0.631578947368421
            ],
            [
              3.789473684210526,
              0.631578947368421
            ],
            [
              3.789473684210526,
              0.9473684210526315
            ],
            [
              3.4736842105263155,
              0.9473684210526315
            ],
            [
              3.4736842105263155,
              0.631578947368421
            ]
          ]
        ]
      }
    },
    {
      "type": "Feature",
      "properties": {
        "id": "14254"
      },
      "geometry": {
        "type": "Polygon",
        "coordinates": [
          [
            [
              3.789473684210526,
              0.631578947368421
            ],
            [
              4.105263157894736,
              0.631578947368421
            ],
            [
              4.105263157894736,
              0.9473684210526315
            ],
            [
              3.789473684210526,
              0.9473684210526315
            ],
            [
              3.789473684210526,
              0.631578947368421
            ]
          ]
        ]
      }
    },
    {
      "type": "Feature",
      "properties": {
        "id": "14255"
      },
      "geometry": {
        "type": "Polygon",
        "coordinates": [
          [
            [
              4.105263157894736,
              0.631578947368421
            ],
            [
              4.421052631578947,
              0.631578947368421
            ],
            [
              4.421052631578947,
              0.9473684210526315
            ],
            [
              4.105263157894736,
              0.9473684210526315
            ],
            [
              4.105263157894736,
              0.631578947368421
            ]
          ]
        ]
      }
    },
    {
      "type": "Feature",
      "properties": {
        "id": "14256"
      },
      "geometry": {
        "type": "Polygon",
        "coordinates": [
          [
            [
              4.421052631578947,
              0.631578947368421
            ],
            [
              4.7368421052631575,
              0.631578947368421
            ],
            [
              4.7368421052631575,
              0.9473684210526315
            ],
            [
              4.421052631578947,
              0.9473684210526315
            ],
            [
              4.421052631578947,
              0.631578947368421
            ]
          ]
        ]
      }
    },
    {
      "type": "Feature",
      "properties": {
        "id": "14257"
      },
      "geometry": {
        "type": "Polygon",
        "coordinates": [
          [
            [
              4.7368421052631575,
              0.631578947368421
            ],
            [
              5.052631578947368,
              0.631578947368421
            ],
            [
              5.052631578947368,
              0.9473684210526315
            ],
            [
              4.7368421052631575,
              0.9473684210526315
            ],
            [
              4.7368421052631575,
              0.631578947368421
            ]
          ]
        ]
      }
    },
    {
      "type": "Feature",
      "properties": {
        "id": "14258"
      },
      "geometry": {
        "type": "Polygon",
        "coordinates": [
          [
            [
              5.052631578947368,
              0.631578947368421
            ],
            [
              5.368421052631579,
              0.631578947368421
            ],
            [
              5.368421052631579,
              0.9473684210526315
            ],
            [
              5.052631578947368,
              0.9473684210526315
            ],
            [
              5.052631578947368,
              0.631578947368421
            ]
          ]
        ]
      }
    },
    {
      "type": "Feature",
      "properties": {
        "id": "14259"
      },
      "geometry": {
        "type": "Polygon",
        "coordinates": [
          [
            [
              5.368421052631579,
              0.631578947368421
            ],
            [
              5.684210526315789,
              0.631578947368421
            ],
            [
              5.684210526315789,
              0.9473684210526315
            ],
            [
              5.368421052631579,
              0.9473684210526315
            ],
            [
              5.368421052631579,
              0.631578947368421
            ]
          ]
        ]
      }
    },
    {
      "type": "Feature",
      "properties": {
        "id": "14260"
      },
      "geometry": {
        "type": "Polygon",
        "coordinates": [
          [
            [
              5.684210526315789,
              0.631578947368421
            ],
            [
              6,
              0.631578947368421
            ],
            [
              6,
              0.9473684210526315
            ],
            [
              5.684210526315789,
              0.9473684210526315
            ],
            [
              5.684210526315789,
              0.631578947368421
            ]
          ]
        ]
      }
    },
    {
      "type": "Feature",
      "properties": {
        "id": "14261"
      },
      "geometry": {
        "type": "Polygon",
        "coordinates": [
          [
            [
              0,
              0.3157894736842105
            ],
            [
              0.3157894736842105,
              0.3157894736842105
            ],
            [
              0.3157894736842105,
              0.631578947368421
            ],
            [
              0,
              0.631578947368421
            ],
            [
              0,
              0.3157894736842105
            ]
          ]
        ]
      }
    },
    {
      "type": "Feature",
      "properties": {
        "id": "14262"
      },
      "geometry": {
        "type": "Polygon",
        "coordinates": [
          [
            [
              0.3157894736842105,
              0.3157894736842105
            ],
            [
              0.631578947368421,
              0.3157894736842105
            ],
            [
              0.631578947368421,
              0.631578947368421
            ],
            [
              0.3157894736842105,
              0.631578947368421
            ],
            [
              0.3157894736842105,
              0.3157894736842105
            ]
          ]
        ]
      }
    },
    {
      "type": "Feature",
      "properties": {
        "id": "14263"
      },
      "geometry": {
        "type": "Polygon",
        "coordinates": [
          [
            [
              0.631578947368421,
              0.3157894736842105
            ],
            [
              0.9473684210526315,
              0.3157894736842105
            ],
            [
              0.9473684210526315,
              0.631578947368421
            ],
            [
              0.631578947368421,
              0.631578947368421
            ],
            [
              0.631578947368421,
              0.3157894736842105
            ]
          ]
        ]
      }
    },
    {
      "type": "Feature",
      "properties": {
        "id": "14264"
      },
      "geometry": {
        "type": "Polygon",
        "coordinates": [
          [
            [
              0.9473684210526315,
              0.3157894736842105
            ],
            [
              1.263157894736842,
              0.3157894736842105
            ],
            [
              1.263157894736842,
              0.631578947368421
            ],
            [
              0.9473684210526315,
              0.631578947368421
            ],
            [
              0.9473684210526315,
              0.3157894736842105
            ]
          ]
        ]
      }
    },
    {
      "type": "Feature",
      "properties": {
        "id": "14265"
      },
      "geometry": {
        "type": "Polygon",
        "coordinates": [
          [
            [
              1.263157894736842,
              0.3157894736842105
            ],
            [
              1.5789473684210527,
              0.3157894736842105
            ],
            [
              1.5789473684210527,
              0.631578947368421
            ],
            [
              1.263157894736842,
              0.631578947368421
            ],
            [
              1.263157894736842,
              0.3157894736842105
            ]
          ]
        ]
      }
    },
    {
      "type": "Feature",
      "properties": {
        "id": "14266"
      },
      "geometry": {
        "type": "Polygon",
        "coordinates": [
          [
            [
              1.5789473684210527,
              0.3157894736842105
            ],
            [
              1.8947368421052633,
              0.3157894736842105
            ],
            [
              1.8947368421052633,
              0.631578947368421
            ],
            [
              1.5789473684210527,
              0.631578947368421
            ],
            [
              1.5789473684210527,
              0.3157894736842105
            ]
          ]
        ]
      }
    },
    {
      "type": "Feature",
      "properties": {
        "id": "14267"
      },
      "geometry": {
        "type": "Polygon",
        "coordinates": [
          [
            [
              1.894736842105263,
              0.3157894736842105
            ],
            [
              2.2105263157894735,
              0.3157894736842105
            ],
            [
              2.2105263157894735,
              0.631578947368421
            ],
            [
              1.894736842105263,
              0.631578947368421
            ],
            [
              1.894736842105263,
              0.3157894736842105
            ]
          ]
        ]
      }
    },
    {
      "type": "Feature",
      "properties": {
        "id": "14268"
      },
      "geometry": {
        "type": "Polygon",
        "coordinates": [
          [
            [
              2.2105263157894735,
              0.3157894736842105
            ],
            [
              2.526315789473684,
              0.3157894736842105
            ],
            [
              2.526315789473684,
              0.631578947368421
            ],
            [
              2.2105263157894735,
              0.631578947368421
            ],
            [
              2.2105263157894735,
              0.3157894736842105
            ]
          ]
        ]
      }
    },
    {
      "type": "Feature",
      "properties": {
        "id": "14269"
      },
      "geometry": {
        "type": "Polygon",
        "coordinates": [
          [
            [
              2.526315789473684,
              0.3157894736842105
            ],
            [
              2.8421052631578947,
              0.3157894736842105
            ],
            [
              2.8421052631578947,
              0.631578947368421
            ],
            [
              2.526315789473684,
              0.631578947368421
            ],
            [
              2.526315789473684,
              0.3157894736842105
            ]
          ]
        ]
      }
    },
    {
      "type": "Feature",
      "properties": {
        "id": "14270"
      },
      "geometry": {
        "type": "Polygon",
        "coordinates": [
          [
            [
              2.8421052631578947,
              0.3157894736842105
            ],
            [
              3.1578947368421053,
              0.3157894736842105
            ],
            [
              3.1578947368421053,
              0.631578947368421
            ],
            [
              2.8421052631578947,
              0.631578947368421
            ],
            [
              2.8421052631578947,
              0.3157894736842105
            ]
          ]
        ]
      }
    },
    {
      "type": "Feature",
      "properties": {
        "id": "14271"
      },
      "geometry": {
        "type": "Polygon",
        "coordinates": [
          [
            [
              3.1578947368421053,
              0.3157894736842105
            ],
            [
              3.473684210526316,
              0.3157894736842105
            ],
            [
              3.473684210526316,
              0.631578947368421
            ],
            [
              3.1578947368421053,
              0.631578947368421
            ],
            [
              3.1578947368421053,
              0.3157894736842105
            ]
          ]
        ]
      }
    },
    {
      "type": "Feature",
      "properties": {
        "id": "14272"
      },
      "geometry": {
        "type": "Polygon",
        "coordinates": [
          [
            [
              3.4736842105263155,
              0.3157894736842105
            ],
            [
              3.789473684210526,
              0.3157894736842105
            ],
            [
              3.789473684210526,
              0.631578947368421
            ],
            [
              3.4736842105263155,
              0.631578947368421
            ],
            [
              3.4736842105263155,
              0.3157894736842105
            ]
          ]
        ]
      }
    },
    {
      "type": "Feature",
      "properties": {
        "id": "14273"
      },
      "geometry": {
        "type": "Polygon",
        "coordinates": [
          [
            [
              3.789473684210526,
              0.3157894736842105
            ],
            [
              4.105263157894736,
              0.3157894736842105
            ],
            [
              4.105263157894736,
              0.631578947368421
            ],
            [
              3.789473684210526,
              0.631578947368421
            ],
            [
              3.789473684210526,
              0.3157894736842105
            ]
          ]
        ]
      }
    },
    {
      "type": "Feature",
      "properties": {
        "id": "14274"
      },
      "geometry": {
        "type": "Polygon",
        "coordinates": [
          [
            [
              4.105263157894736,
              0.3157894736842105
            ],
            [
              4.421052631578947,
              0.3157894736842105
            ],
            [
              4.421052631578947,
              0.631578947368421
            ],
            [
              4.105263157894736,
              0.631578947368421
            ],
            [
              4.105263157894736,
              0.3157894736842105
            ]
          ]
        ]
      }
    },
    {
      "type": "Feature",
      "properties": {
        "id": "14275"
      },
      "geometry": {
        "type": "Polygon",
        "coordinates": [
          [
            [
              4.421052631578947,
              0.3157894736842105
            ],
            [
              4.7368421052631575,
              0.3157894736842105
            ],
            [
              4.7368421052631575,
              0.631578947368421
            ],
            [
              4.421052631578947,
              0.631578947368421
            ],
            [
              4.421052631578947,
              0.3157894736842105
            ]
          ]
        ]
      }
    },
    {
      "type": "Feature",
      "properties": {
        "id": "14276"
      },
      "geometry": {
        "type": "Polygon",
        "coordinates": [
          [
            [
              4.7368421052631575,
              0.3157894736842105
            ],
            [
              5.052631578947368,
              0.3157894736842105
            ],
            [
              5.052631578947368,
              0.631578947368421
            ],
            [
              4.7368421052631575,
              0.631578947368421
            ],
            [
              4.7368421052631575,
              0.3157894736842105
            ]
          ]
        ]
      }
    },
    {
      "type": "Feature",
      "properties": {
        "id": "14277"
      },
      "geometry": {
        "type": "Polygon",
        "coordinates": [
          [
            [
              5.052631578947368,
              0.3157894736842105
            ],
            [
              5.368421052631579,
              0.3157894736842105
            ],
            [
              5.368421052631579,
              0.631578947368421
            ],
            [
              5.052631578947368,
              0.631578947368421
            ],
            [
              5.052631578947368,
              0.3157894736842105
            ]
          ]
        ]
      }
    },
    {
      "type": "Feature",
      "properties": {
        "id": "14278"
      },
      "geometry": {
        "type": "Polygon",
        "coordinates": [
          [
            [
              5.368421052631579,
              0.3157894736842105
            ],
            [
              5.684210526315789,
              0.3157894736842105
            ],
            [
              5.684210526315789,
              0.631578947368421
            ],
            [
              5.368421052631579,
              0.631578947368421
            ],
            [
              5.368421052631579,
              0.3157894736842105
            ]
          ]
        ]
      }
    },
    {
      "type": "Feature",
      "properties": {
        "id": "14279"
      },
      "geometry": {
        "type": "Polygon",
        "coordinates": [
          [
            [
              5.684210526315789,
              0.3157894736842105
            ],
            [
              6,
              0.3157894736842105
            ],
            [
              6,
              0.631578947368421
            ],
            [
              5.684210526315789,
              0.631578947368421
            ],
            [
              5.684210526315789,
              0.3157894736842105
            ]
          ]
        ]
      }
    },
    {
      "type": "Feature",
      "properties": {
        "id": "14280"
      },
      "geometry": {
        "type": "Polygon",
        "coordinates": [
          [
            [
              0,
              0
            ],
            [
              0.3157894736842105,
              0
            ],
            [
              0.3157894736842105,
              0.3157894736842105
            ],
            [
              0,
              0.3157894736842105
            ],
            [
              0,
              0
            ]
          ]
        ]
      }
    },
    {
      "type": "Feature",
      "properties": {
        "id": "14281"
      },
      "geometry": {
        "type": "Polygon",
        "coordinates": [
          [
            [
              0.3157894736842105,
              0
            ],
            [
              0.631578947368421,
              0
            ],
            [
              0.631578947368421,
              0.3157894736842105
            ],
            [
              0.3157894736842105,
              0.3157894736842105
            ],
            [
              0.3157894736842105,
              0
            ]
          ]
        ]
      }
    },
    {
      "type": "Feature",
      "properties": {
        "id": "14282"
      },
      "geometry": {
        "type": "Polygon",
        "coordinates": [
          [
            [
              0.631578947368421,
              0
            ],
            [
              0.9473684210526315,
              0
            ],
            [
              0.9473684210526315,
              0.3157894736842105
            ],
            [
              0.631578947368421,
              0.3157894736842105
            ],
            [
              0.631578947368421,
              0
            ]
          ]
        ]
      }
    },
    {
      "type": "Feature",
      "properties": {
        "id": "14283"
      },
      "geometry": {
        "type": "Polygon",
        "coordinates": [
          [
            [
              0.9473684210526315,
              0
            ],
            [
              1.263157894736842,
              0
            ],
            [
              1.263157894736842,
              0.3157894736842105
            ],
            [
              0.9473684210526315,
              0.3157894736842105
            ],
            [
              0.9473684210526315,
              0
            ]
          ]
        ]
      }
    },
    {
      "type": "Feature",
      "properties": {
        "id": "14284"
      },
      "geometry": {
        "type": "Polygon",
        "coordinates": [
          [
            [
              1.263157894736842,
              0
            ],
            [
              1.5789473684210527,
              0
            ],
            [
              1.5789473684210527,
              0.3157894736842105
            ],
            [
              1.263157894736842,
              0.3157894736842105
            ],
            [
              1.263157894736842,
              0
            ]
          ]
        ]
      }
    },
    {
      "type": "Feature",
      "properties": {
        "id": "14285"
      },
      "geometry": {
        "type": "Polygon",
        "coordinates": [
          [
            [
              1.5789473684210527,
              0
            ],
            [
              1.8947368421052633,
              0
            ],
            [
              1.8947368421052633,
              0.3157894736842105
            ],
            [
              1.5789473684210527,
              0.3157894736842105
            ],
            [
              1.5789473684210527,
              0
            ]
          ]
        ]
      }
    }
  ]
}